NORAD_CAT_ID,OBJECT_NAME,OBJECT_TYPE,EPOCH,MEAN_MOTION,ECCENTRICITY,INCLINATION,RA_OF_ASC_NODE,ARG_OF_PERICENTER,MEAN_ANOMALY,BSTAR,MEAN_MOTION_DOT,MEAN_MOTION_DDOT,TLE_LINE0,TLE_LINE1,TLE_LINE2,SEMIMAJOR_AXIS,PERIOD,APOGEE,PERIGEE,DECAYED
52497.0,STARLINK-3884,PAYLOAD,2023-08-06 17:02:12,15.08813667,0.000113,53.2174,335.7875,92.0804,268.0317,0.00034595,5.218e-05,0.0,0 STARLINK-3884,1 52497U 22049AY  23218.70986999  .00005218  00000-0  34595-3 0  9992,2 52497  53.2174 335.7875 0001130  92.0804 268.0317 15.08813667 69745,6917.961,95.439,540.608,539.044,0.0
52497.0,STARLINK-3884,PAYLOAD,2023-08-07 07:20:41,15.08830861,0.0001153,53.2163,333.1137,79.1188,280.9934,0.00089922,0.00014048,0.0,0 STARLINK-3884,1 52497U 22049AY  23219.30603835  .00014048  00000-0  89922-3 0  9999,2 52497  53.2163 333.1137 0001153  79.1188 280.9934 15.08830861 69835,6917.908,95.438,540.571,538.976,0.0
52497.0,STARLINK-3884,PAYLOAD,2023-08-08 16:43:46,15.08876836,0.0001064,53.2163,326.8683,78.3278,281.7834,0.0013135,0.00020699,0.0,0 STARLINK-3884,1 52497U 22049AY  23220.69706462  .00020699  00000-0  13135-2 0  9994,2 52497  53.2163 326.8683 0001064  78.3278 281.7834 15.08876836 70047,6917.768,95.435,540.369,538.897,0.0
52497.0,STARLINK-3884,PAYLOAD,2023-08-09 10:13:01,15.08851691,0.0001333,53.2155,323.597,109.5991,250.5145,0.0012988,0.00020449,0.0,0 STARLINK-3884,1 52497U 22049AY  23221.42570803  .00020449  00000-0  12988-2 0  9992,2 52497  53.2155 323.5970 0001333 109.5991 250.5145 15.08851691 70152,6917.845,95.437,540.632,538.788,0.0
52497.0,STARLINK-3884,PAYLOAD,2023-08-09 13:23:47,15.08843434,0.0001115,53.2166,323.0025,93.7145,266.3975,0.0010026,0.00015706,0.0,0 STARLINK-3884,1 52497U 22049AY  23221.55818909  .00015706  00000-0  10026-2 0  9999,2 52497  53.2166 323.0025 0001115  93.7145 266.3975 15.08843434 70177,6917.87,95.437,540.506,538.964,0.0
52497.0,STARLINK-3884,PAYLOAD,2023-08-10 02:06:52,15.0884648,0.0001092,53.2169,320.6228,94.7479,265.3638,0.00070354,0.00010929,0.0,0 STARLINK-3884,1 52497U 22049AY  23222.08810936  .00010929  00000-0  70354-3 0  9993,2 52497  53.2169 320.6228 0001092  94.7479 265.3638 15.08846480 70251,6917.861,95.437,540.481,538.97,0.0
52497.0,STARLINK-3884,PAYLOAD,2023-08-10 13:14:34,15.08848145,0.0001064,53.217,318.5426,92.3222,267.7892,0.00044361,6.781e-05,0.0,0 STARLINK-3884,1 52497U 22049AY  23222.55178809  .00006781  00000-0  44361-3 0  9991,2 52497  53.2170 318.5426 0001064  92.3222 267.7892 15.08848145 70324,6917.855,95.437,540.457,538.984,0.0
52497.0,STARLINK-3884,PAYLOAD,2023-08-11 09:54:35,15.08840659,0.0001085,53.2173,314.6762,93.1149,266.9968,0.0001086,1.441e-05,0.0,0 STARLINK-3884,1 52497U 22049AY  23223.41290898  .00001441  00000-0  10860-3 0  9995,2 52497  53.2173 314.6762 0001085  93.1149 266.9968 15.08840659 70458,6917.878,95.438,540.494,538.993,0.0
52497.0,STARLINK-3884,PAYLOAD,2023-08-12 16:06:54,15.08850595,0.0001125,53.2172,309.0261,83.192,276.92,0.00015046,2.108e-05,0.0,0 STARLINK-3884,1 52497U 22049AY  23224.67146301  .00002108  00000-0  15046-3 0  9995,2 52497  53.2172 309.0261 0001125  83.1920 276.9200 15.08850595 70641,6917.848,95.437,540.491,538.935,0.0
52497.0,STARLINK-3884,PAYLOAD,2023-08-12 22:28:27,15.08840631,0.0001139,53.2172,307.8369,80.4596,279.6524,1.6417e-05,-2.7e-07,0.0,0 STARLINK-3884,1 52497U 22049AY  23224.93642816 -.00000027  00000-0  16417-4 0  9999,2 52497  53.2172 307.8369 0001139  80.4596 279.6524 15.08840631 70683,6917.878,95.438,540.531,538.956,0.0
52497.0,STARLINK-3884,PAYLOAD,2023-08-13 08:00:46,15.08828788,0.0001254,53.218,306.0501,100.2188,259.8946,-0.00016862,-2.97e-05,0.0,0 STARLINK-3884,1 52497U 22049AY  23225.33387549 -.00002970  00000-0 -16862-3 0  9996,2 52497  53.2180 306.0501 0001254 100.2188 259.8946 15.08828788 70741,6917.915,95.438,540.647,538.912,0.0
52497.0,STARLINK-3884,PAYLOAD,2023-08-14 11:02:19,15.08844826,0.0001195,53.217,300.9982,82.4381,277.6747,0.00013897,1.925e-05,0.0,0 STARLINK-3884,1 52497U 22049AY  23226.45995170  .00001925  00000-0  13897-3 0  9997,2 52497  53.2170 300.9982 0001195  82.4381 277.6747 15.08844826 70913,6917.866,95.437,540.557,538.904,0.0
52497.0,STARLINK-3884,PAYLOAD,2023-08-15 10:53:07,15.08844273,0.0001245,53.2165,296.5378,84.8938,275.2196,0.00019428,2.806e-05,0.0,0 STARLINK-3884,1 52497U 22049AY  23227.45355359  .00002806  00000-0  19428-3 0  9992,2 52497  53.2165 296.5378 0001245  84.8938 275.2196 15.08844273 71061,6917.867,95.437,540.594,538.871,0.0
52497.0,STARLINK-3884,PAYLOAD,2023-08-16 21:51:35,15.08844322,0.0001402,53.2171,289.9941,86.8033,273.312,8.4658e-05,1.06e-05,0.0,0 STARLINK-3884,1 52497U 22049AY  23228.91083207  .00001060  00000-0  84658-4 0  9993,2 52497  53.2171 289.9941 0001402  86.8033 273.3120 15.08844322 71288,6917.867,95.437,540.702,538.762,0.0
52497.0,STARLINK-3884,PAYLOAD,2023-08-18 10:25:28,15.08835536,0.0001422,53.2173,283.1553,97.1732,262.9422,3.565e-05,2.79e-06,0.0,0 STARLINK-3884,1 52497U 22049AY  23230.43435766  .00000279  00000-0  35650-4 0  9993,2 52497  53.2173 283.1553 0001422  97.1732 262.9422 15.08835536 71510,6917.894,95.438,540.743,538.775,0.0
52497.0,STARLINK-3884,PAYLOAD,2023-08-19 10:16:15,15.08843304,0.0001419,53.2175,278.6949,98.5036,261.6117,8.4534e-05,1.058e-05,0.0,0 STARLINK-3884,1 52497U 22049AY  23231.42795380  .00001058  00000-0  84534-4 0  9995,2 52497  53.2175 278.6949 0001419  98.5036 261.6117 15.08843304 71663,6917.87,95.437,540.717,538.754,0.0
52497.0,STARLINK-3884,PAYLOAD,2023-08-20 08:31:39,15.08833967,0.000162,53.2178,274.5288,114.7065,245.4096,5.5137e-05,5.89e-06,0.0,0 STARLINK-3884,1 52497U 22049AY  23232.35532163  .00000589  00000-0  55137-4 0  9991,2 52497  53.2178 274.5288 0001620 114.7065 245.4096 15.08833967 71800,6917.899,95.438,540.885,538.643,0.0
52497.0,STARLINK-3884,PAYLOAD,2023-08-21 09:57:49,15.08840449,0.0001564,53.2175,269.7729,110.9806,249.1354,5.9262e-05,6.55e-06,0.0,0 STARLINK-3884,1 52497U 22049AY  23233.41516042  .00000655  00000-0  59262-4 0  9994,2 52497  53.2175 269.7729 0001564 110.9806 249.1354 15.08840449 71969,6917.879,95.438,540.826,538.662,0.0
52497.0,STARLINK-3884,PAYLOAD,2023-08-22 14:34:46,15.08845826,0.0001421,53.2173,264.4199,88.847,271.2685,0.00012349,1.678e-05,0.0,0 STARLINK-3884,1 52497U 22049AY  23234.60747721  .00001678  00000-0  12349-3 0  9996,2 52497  53.2173 264.4199 0001421  88.8470 271.2685 15.08845826 72140,6917.863,95.437,540.711,538.745,0.0
52497.0,STARLINK-3884,PAYLOAD,2023-08-23 08:04:01,15.08837801,0.0001481,53.2174,261.1477,88.9651,271.1511,5.1983e-05,5.39e-06,0.0,0 STARLINK-3884,1 52497U 22049AY  23235.33612461  .00000539  00000-0  51983-4 0  9992,2 52497  53.2174 261.1477 0001481  88.9651 271.1511 15.08837801 72255,6917.887,95.438,540.777,538.728,0.0
52497.0,STARLINK-3884,PAYLOAD,2023-08-24 12:40:56,15.08847492,0.0001464,53.2167,255.7967,89.2644,270.8516,8.6701e-05,1.092e-05,0.0,0 STARLINK-3884,1 52497U 22049AY  23236.52843665  .00001092  00000-0  86701-4 0  9997,2 52497  53.2167 255.7967 0001464  89.2644 270.8516 15.08847492 72277,6917.857,95.437,540.735,538.71,0.0
52497.0,STARLINK-3884,PAYLOAD,2023-08-25 07:45:34,15.08840162,0.0001593,53.2173,252.2299,99.0262,261.091,6.4916e-05,7.45e-06,0.0,0 STARLINK-3884,1 52497U 22049AY  23237.32332150  .00000745  00000-0  64916-4 0  9996,2 52497  53.2173 252.2299 0001593  99.0262 261.0910 15.08840162 72550,6917.88,95.438,540.847,538.643,0.0
52497.0,STARLINK-3884,PAYLOAD,2023-08-25 10:56:21,15.08842796,0.0001519,53.2173,251.6357,91.9556,268.161,8.426e-05,1.053e-05,0.0,0 STARLINK-3884,1 52497U 22049AY  23237.45579967  .00001053  00000-0  84260-4 0  9996,2 52497  53.2173 251.6357 0001519  91.9556 268.1610 15.08842796 72418,6917.872,95.437,540.788,538.686,0.0
52497.0,STARLINK-3884,PAYLOAD,2023-08-26 10:47:08,15.0883964,0.0001557,53.2175,247.1758,93.1102,267.0069,2.6548e-05,1.35e-06,0.0,0 STARLINK-3884,1 52497U 22049AY  23238.44940328  .00000135  00000-0  26548-4 0  9994,2 52497  53.2175 247.1758 0001557  93.1102 267.0069 15.08839640 72564,6917.881,95.438,540.824,538.669,0.0
52497.0,STARLINK-3884,PAYLOAD,2023-08-27 04:16:23,15.08835458,0.0001558,53.2178,243.9057,97.1774,262.9395,1.3112e-05,-7.9e-07,0.0,0 STARLINK-3884,1 52497U 22049AY  23239.17804766 -.00000079  00000-0  13112-4 0  9991,2 52497  53.2178 243.9057 0001558  97.1774 262.9395 15.08835458 72674,6917.894,95.438,540.837,538.681,0.0
52497.0,STARLINK-3884,PAYLOAD,2023-08-28 08:53:19,15.08840085,0.0001464,53.2171,238.5512,94.2096,265.9064,8.0747e-05,9.97e-06,0.0,0 STARLINK-3884,1 52497U 22049AY  23240.37036508  .00000997  00000-0  80747-4 0  9992,2 52497  53.2171 238.5512 0001464  94.2096 265.9064 15.08840085 73011,6917.88,95.438,540.758,538.732,0.0
52497.0,STARLINK-3884,PAYLOAD,2023-08-28 16:50:15,15.08837025,0.0001439,53.217,237.0641,92.6934,267.4223,4.6224e-05,4.48e-06,0.0,0 STARLINK-3884,1 52497U 22049AY  23240.70156836  .00000448  00000-0  46224-4 0  9999,2 52497  53.2170 237.0641 0001439  92.6934 267.4223 15.08837025 72903,6917.889,95.438,540.75,538.759,0.0
52497.0,STARLINK-3884,PAYLOAD,2023-08-29 08:44:06,15.0884082,0.0001431,53.2168,234.0904,92.7503,267.3653,9.6965e-05,1.256e-05,0.0,0 STARLINK-3884,1 52497U 22049AY  23241.36396594  .00001256  00000-0  96965-4 0  9994,2 52497  53.2168 234.0904 0001431  92.7503 267.3653 15.08840820 73009,6917.878,95.438,540.733,538.753,0.0
52497.0,STARLINK-3884,PAYLOAD,2023-08-29 16:41:02,15.08839697,0.0001414,53.2166,232.6034,86.9532,273.1622,4.4834e-05,4.26e-06,0.0,0 STARLINK-3884,1 52497U 22049AY  23241.69516867  .00000426  00000-0  44834-4 0  9993,2 52497  53.2166 232.6034 0001414  86.9532 273.1622 15.08839697 73217,6917.881,95.438,540.725,538.768,0.0
52497.0,STARLINK-3884,PAYLOAD,2023-08-30 16:31:49,15.08839312,0.000146,53.2168,228.1428,87.0091,273.1068,3.6788e-05,2.98e-06,0.0,0 STARLINK-3884,1 52497U 22049AY  23242.68876983  .00000298  00000-0  36788-4 0  9997,2 52497  53.2168 228.1428 0001460  87.0091 273.1068 15.08839312 73206,6917.882,95.438,540.758,538.737,0.0
